[{"OBJECT_NAME":"EXACTVIEW-1 (ADS-1B)","OBJECT_ID":"2012-039C","EPOCH":"2026-03-09T21:13:50.174400","MEAN_MOTION":14.24951198,"ECCENTRICITY":0.00118702,"INCLINATION":98.9638,"RA_OF_ASC_NODE":184.1041,"ARG_OF_PERICENTER":97.8489,"MEAN_ANOMALY":262.4037,"EPHEMERIS_TYPE":0,"CLASSIFICATION_TYPE":"U","NORAD_CAT_ID":38709,"ELEMENT_SET_NO":999,"REV_AT_EPOCH":70856,"BSTAR":0.0001068616,"MEAN_MOTION_DOT":2.04e-6,"MEAN_MOTION_DDOT":0},{"OBJECT_NAME":"OPS 5058 (DMSP 5B F2)","OBJECT_ID":"1972-018A","EPOCH":"2026-03-09T22:51:18.291456","MEAN_MOTION":14.2546146,"ECCENTRICITY":0.00507972,"INCLINATION":99.1241,"RA_OF_ASC_NODE":258.7676,"ARG_OF_PERICENTER":20.1576,"MEAN_ANOMALY":340.1593,"EPHEMERIS_TYPE":0,"CLASSIFICATION_TYPE":"U","NORAD_CAT_ID":5903,"ELEMENT_SET_NO":999,"REV_AT_EPOCH":87607,"BSTAR":0.00011428573,"MEAN_MOTION_DOT":2.26e-6,"MEAN_MOTION_DDOT":0}]
